CCSDS_OMM_VERS = 2.0
CREATION_DATE  = 
ORIGINATOR     = 

OBJECT_NAME    = ISS OBJECT XW
OBJECT_ID      = 1998-067XW
CENTER_NAME    = EARTH
REF_FRAME      = TEME
TIME_SYSTEM    = UTC
MEAN_ELEMENT_THEORY = SGP/SGP4

EPOCH          = 2026-02-21T07:22:54.813504
MEAN_MOTION    = 15.64262584
ECCENTRICITY   = .00036695
INCLINATION    = 51.6256
RA_OF_ASC_NODE = 148.7568
ARG_OF_PERICENTER = 7.5072
MEAN_ANOMALY   = 352.5977

EPHEMERIS_TYPE = 0
CLASSIFICATION_TYPE = U
NORAD_CAT_ID   = 66910
ELEMENT_SET_NO = 999
REV_AT_EPOCH   = 1261
BSTAR          = .11872795E-2
MEAN_MOTION_DOT = .116662E-2
MEAN_MOTION_DDOT = 0

CCSDS_OMM_VERS = 2.0
CREATION_DATE  = 
ORIGINATOR     = 

OBJECT_NAME    = ISS OBJECT XX
OBJECT_ID      = 1998-067XX
CENTER_NAME    = EARTH
REF_FRAME      = TEME
TIME_SYSTEM    = UTC
MEAN_ELEMENT_THEORY = SGP/SGP4

EPOCH          = 2026-02-21T07:11:27.882528
MEAN_MOTION    = 15.68221249
ECCENTRICITY   = .00056259
INCLINATION    = 51.6237
RA_OF_ASC_NODE = 147.9479
ARG_OF_PERICENTER = 359.3320
MEAN_ANOMALY   = 0.7668

EPHEMERIS_TYPE = 0
CLASSIFICATION_TYPE = U
NORAD_CAT_ID   = 66911
ELEMENT_SET_NO = 999
REV_AT_EPOCH   = 1261
BSTAR          = .15393196E-2
MEAN_MOTION_DOT = .179047E-2
MEAN_MOTION_DDOT = 0

CCSDS_OMM_VERS = 2.0
CREATION_DATE  = 
ORIGINATOR     = 

OBJECT_NAME    = ISS OBJECT XY
OBJECT_ID      = 1998-067XY
CENTER_NAME    = EARTH
REF_FRAME      = TEME
TIME_SYSTEM    = UTC
MEAN_ELEMENT_THEORY = SGP/SGP4

EPOCH          = 2026-02-21T06:26:03.774336
MEAN_MOTION    = 15.60682171
ECCENTRICITY   = .00017716
INCLINATION    = 51.6292
RA_OF_ASC_NODE = 150.0049
ARG_OF_PERICENTER = 11.1610
MEAN_ANOMALY   = 348.9422

EPHEMERIS_TYPE = 0
CLASSIFICATION_TYPE = U
NORAD_CAT_ID   = 66912
ELEMENT_SET_NO = 999
REV_AT_EPOCH   = 1258
BSTAR          = .98238216E-3
MEAN_MOTION_DOT = .83466E-3
MEAN_MOTION_DDOT = 0

CCSDS_OMM_VERS = 2.0
CREATION_DATE  = 
ORIGINATOR     = 

OBJECT_NAME    = ISS OBJECT XZ
OBJECT_ID      = 1998-067XZ
CENTER_NAME    = EARTH
REF_FRAME      = TEME
TIME_SYSTEM    = UTC
MEAN_ELEMENT_THEORY = SGP/SGP4

EPOCH          = 2026-02-21T07:10:05.044800
MEAN_MOTION    = 15.50445364
ECCENTRICITY   = .00100734
INCLINATION    = 51.6313
RA_OF_ASC_NODE = 153.2064
ARG_OF_PERICENTER = 131.4017
MEAN_ANOMALY   = 228.7839

EPHEMERIS_TYPE = 0
CLASSIFICATION_TYPE = U
NORAD_CAT_ID   = 67683
ELEMENT_SET_NO = 999
REV_AT_EPOCH   = 224
BSTAR          = .66700508E-3
MEAN_MOTION_DOT = .3847E-3
MEAN_MOTION_DDOT = 0

CCSDS_OMM_VERS = 2.0
CREATION_DATE  = 
ORIGINATOR     = 

OBJECT_NAME    = GXIBA-1
OBJECT_ID      = 1998-067YA
CENTER_NAME    = EARTH
REF_FRAME      = TEME
TIME_SYSTEM    = UTC
MEAN_ELEMENT_THEORY = SGP/SGP4

EPOCH          = 2026-02-20T13:58:26.230656
MEAN_MOTION    = 15.51598585
ECCENTRICITY   = .0011811
INCLINATION    = 51.6312
RA_OF_ASC_NODE = 156.6723
ARG_OF_PERICENTER = 122.4211
MEAN_ANOMALY   = 237.7923

EPHEMERIS_TYPE = 0
CLASSIFICATION_TYPE = U
NORAD_CAT_ID   = 67684
ELEMENT_SET_NO = 999
REV_AT_EPOCH   = 213
BSTAR          = .10470195E-2
MEAN_MOTION_DOT = .63461E-3
MEAN_MOTION_DDOT = 0

CCSDS_OMM_VERS = 2.0
CREATION_DATE  = 
ORIGINATOR     = 

OBJECT_NAME    = CORAL
OBJECT_ID      = 1998-067YB
CENTER_NAME    = EARTH
REF_FRAME      = TEME
TIME_SYSTEM    = UTC
MEAN_ELEMENT_THEORY = SGP/SGP4

EPOCH          = 2026-02-21T07:07:57.921888
MEAN_MOTION    = 15.50652285
ECCENTRICITY   = .0012048
INCLINATION    = 51.6309
RA_OF_ASC_NODE = 153.1959
ARG_OF_PERICENTER = 128.0063
MEAN_ANOMALY   = 232.2015

EPHEMERIS_TYPE = 0
CLASSIFICATION_TYPE = U
NORAD_CAT_ID   = 67685
ELEMENT_SET_NO = 999
REV_AT_EPOCH   = 224
BSTAR          = .72112737E-3
MEAN_MOTION_DOT = .41994E-3
MEAN_MOTION_DDOT = 0

CCSDS_OMM_VERS = 2.0
CREATION_DATE  = 
ORIGINATOR     = 

OBJECT_NAME    = ISS OBJECT YC
OBJECT_ID      = 1998-067YC
CENTER_NAME    = EARTH
REF_FRAME      = TEME
TIME_SYSTEM    = UTC
MEAN_ELEMENT_THEORY = SGP/SGP4

EPOCH          = 2026-02-21T07:05:48.790176
MEAN_MOTION    = 15.50905757
ECCENTRICITY   = .00077258
INCLINATION    = 51.6315
RA_OF_ASC_NODE = 153.1862
ARG_OF_PERICENTER = 99.5470
MEAN_ANOMALY   = 260.6392

EPHEMERIS_TYPE = 0
CLASSIFICATION_TYPE = U
NORAD_CAT_ID   = 67686
ELEMENT_SET_NO = 999
REV_AT_EPOCH   = 224
BSTAR          = .846912E-3
MEAN_MOTION_DOT = .49817E-3
MEAN_MOTION_DDOT = 0

CCSDS_OMM_VERS = 2.0
CREATION_DATE  = 
ORIGINATOR     = 

OBJECT_NAME    = LEOPARD
OBJECT_ID      = 1998-067YD
CENTER_NAME    = EARTH
REF_FRAME      = TEME
TIME_SYSTEM    = UTC
MEAN_ELEMENT_THEORY = SGP/SGP4

EPOCH          = 2026-02-21T07:08:50.686368
MEAN_MOTION    = 15.50566387
ECCENTRICITY   = .00078066
INCLINATION    = 51.6314
RA_OF_ASC_NODE = 153.2007
ARG_OF_PERICENTER = 102.1661
MEAN_ANOMALY   = 258.0203

EPHEMERIS_TYPE = 0
CLASSIFICATION_TYPE = U
NORAD_CAT_ID   = 67687
ELEMENT_SET_NO = 999
REV_AT_EPOCH   = 216
BSTAR          = .6864564E-3
MEAN_MOTION_DOT = .39753E-3
MEAN_MOTION_DDOT = 0

CCSDS_OMM_VERS = 2.0
CREATION_DATE  = 
ORIGINATOR     = 

OBJECT_NAME    = ISS OBJECT YE
OBJECT_ID      = 1998-067YE
CENTER_NAME    = EARTH
REF_FRAME      = TEME
TIME_SYSTEM    = UTC
MEAN_ELEMENT_THEORY = SGP/SGP4

EPOCH          = 2026-02-21T07:06:41.706720
MEAN_MOTION    = 15.50790998
ECCENTRICITY   = .00077101
INCLINATION    = 51.6323
RA_OF_ASC_NODE = 153.1914
ARG_OF_PERICENTER = 100.0115
MEAN_ANOMALY   = 260.1745

EPHEMERIS_TYPE = 0
CLASSIFICATION_TYPE = U
NORAD_CAT_ID   = 67688
ELEMENT_SET_NO = 999
REV_AT_EPOCH   = 216
BSTAR          = .80053125E-3
MEAN_MOTION_DOT = .46852E-3
MEAN_MOTION_DDOT = 0

CCSDS_OMM_VERS = 2.0
CREATION_DATE  = 
ORIGINATOR     = 

OBJECT_NAME    = CREW DRAGON 12
OBJECT_ID      = 2026-031A
CENTER_NAME    = EARTH
REF_FRAME      = TEME
TIME_SYSTEM    = UTC
MEAN_ELEMENT_THEORY = SGP/SGP4

EPOCH          = 2026-02-21T05:58:25.424832
MEAN_MOTION    = 15.48178501
ECCENTRICITY   = .00085229
INCLINATION    = 51.6322
RA_OF_ASC_NODE = 153.6219
ARG_OF_PERICENTER = 117.8535
MEAN_ANOMALY   = 242.3318

EPHEMERIS_TYPE = 0
CLASSIFICATION_TYPE = U
NORAD_CAT_ID   = 67796
ELEMENT_SET_NO = 999
REV_AT_EPOCH   = 55375
BSTAR          = .21781902E-3
MEAN_MOTION_DOT = .11241E-3
MEAN_MOTION_DDOT = 0

